satname,norad_id,inclination_deg,eccentricity,mean_motion_rev_per_day,perigee_km,apogee_km,l1,l2
STARLINK-1260,45404,53.1596,0.0001398,15.30177086,474.3253791626885,476.2415955309507,1 45404U 20019AW  26063.66851362 -.00003337  00000+0 -10066-3 0  9996,2 45404  53.1596 152.5602 0001398  95.6886 264.4274 15.30177086329205
STARLINK-1263,45405,53.1608,0.0001181,15.30200389,474.4045271934601,476.023288677914,1 45405U 20019AX  26063.46095720  .00001279  00000+0  55308-4 0  9993,2 45405  53.1608 153.5568 0001181  88.9100 271.2036 15.30200389329177
STARLINK-1265,45406,53.1597,0.0001184,15.30208166,474.3792533255064,476.00212132186425,1 45406U 20019AY  26063.47572097  .00003632  00000+0  13465-3 0  9994,2 45406  53.1597 153.5633 0001184 104.5143 255.5989 15.30208166329176
STARLINK-1278,45408,53.0474,0.0001047,15.54711162,402.2823915284689,403.70236001975627,1 45408U 20019BA  26063.51229045  .00115630  00000+0  16944-2 0  9999,2 45408  53.0474 155.4440 0001047  69.4890 290.6232 15.54711162329154
STARLINK-1296,45412,53.1607,0.0001472,15.30177558,474.27325471680524,476.29090129337055,1 45412U 20019BE  26063.46939547  .00010281  00000+0  35902-3 0  9995,2 45412  53.1607 153.4969 0001472  92.1876 267.9293 15.30177558329176
STARLINK-1298,45413,53.0353,0.0007155,15.93304054,288.27092280918714,297.8173830390224,1 45413U 20019BF  26063.91668981  .00319928  50434-4  88622-3 0  9995,2 45413  53.0353  78.3564 0007155   2.7973  20.8858 15.93304054  6008
STARLINK-1309,45414,53.0681,0.0004689,15.53687936,402.78825383708863,409.1503887451945,1 45414U 20019BG  26063.48376311  .00115995  00000+0  17637-2 0  9995,2 45414  53.0681 148.7401 0004689  15.1196 344.9953 15.53687936329226
STARLINK-1316,45415,53.1603,0.0001382,15.30202561,474.2602905463891,476.1545549448365,1 45415U 20019BH  26063.64531358  .00000696  00000+0  35637-4 0  9991,2 45415  53.1603 152.7294 0001382  82.1079 278.0079 15.30202561329226
STARLINK-1286,45417,53.05,0.0002615,15.50453138,413.62557563206155,417.1785965740928,1 45417U 20019BK  26063.51458993  .00046554  00000+0  80681-3 0  9993,2 45417  53.0500 155.5810 0002615  60.2402 299.8866 15.50453138329422
STARLINK-1308,45419,53.0553,0.0001074,15.49702537,416.8656886828712,418.32541203468827,1 45419U 20019BM  26063.52435897  .00040712  00000+0  72608-3 0  9994,2 45419  53.0553 176.8916 0001074  13.7502 346.3535 15.49702537328874
STARLINK-1329,45531,53.0492,0.0001552,15.55137997,400.6992800874905,402.8037574837217,1 45531U 20025A   26063.91668981  .00148665  00000+0  21337-2 0  9999,2 45531  53.0492 104.4494 0001552 303.7438 220.0213 15.55137997  5973
STARLINK-1338,45532,53.0498,0.000486,15.53605893,402.91096469149124,409.50534818354754,1 45532U 20025B   26063.49351405  .00116514  00000+0  17766-2 0  9992,2 45532  53.0498 109.8187 0004860 336.8348  23.2441 15.53605893324591
STARLINK-1350,45535,53.0724,0.000186,15.35929792,456.8885990538047,459.43170159372585,1 45535U 20025E   26063.26016089  .00020873  00000+0  59741-3 0  9998,2 45535  53.0724  58.6406 0001860  61.3853 298.7336 15.35929792325320
STARLINK-1362,45538,53.1625,0.0001208,15.30194712,474.40297164232015,476.05874531692825,1 45538U 20025H   26063.56142703 -.00001551  00000+0 -40243-4 0  9999,2 45538  53.1625 124.8153 0001208  96.2468 263.8670 15.30194712324395
STARLINK-1368,45540,53.1601,0.0001392,15.30195552,474.2743619209641,476.1823388345101,1 45540U 20025K   26063.44032061 -.00000002  00000+0  12052-4 0  9990,2 45540  53.1601 125.7108 0001392  91.2002 268.9158 15.30195552324362
STARLINK-1371,45542,53.0509,0.0001757,15.46046889,427.1078402861749,429.4996235593717,1 45542U 20025M   26063.44881276  .00099324  00000+0  19834-2 0  9999,2 45542  53.0509 114.4389 0001757 304.3876  55.6964 15.46046889324527
STARLINK-1372,45543,53.1609,0.000153,15.30193083,474.1871563857958,476.28428843885376,1 45543U 20025N   26063.48242115  .00000822  00000+0  39877-4 0  9993,2 45543  53.1609 125.2114 0001530  73.9296 286.1874 15.30193083323476
STARLINK-1373,45544,53.0507,0.0004588,15.49688724,414.5180317456652,420.7538329884055,1 45544U 20025P   26063.53946039  .00100126  00000+0  17610-2 0  9993,2 45544  53.0507 113.6919 0004588 344.1912  15.8952 15.49688724324545
STARLINK-1327,45555,53.0483,0.000611,15.52740309,404.5824617434355,412.8760122850663,1 45555U 20025AA  26063.37706777  .00125329  00000+0  19685-2 0  9996,2 45555  53.0483  92.2550 0006110  32.7682 327.3706 15.52740309324821
STARLINK-1356,45564,53.0525,0.0005727,15.43955078,430.5485314698699,438.35166873432627,1 45564U 20025AK  26063.81292303  .00043502  00000+0  94430-3 0  9994,2 45564  53.0525  97.0567 0005727  13.7452 346.3708 15.43955078324796
STARLINK-1357,45565,53.0525,0.0003723,15.54314939,401.6197050345636,406.66979202451876,1 45565U 20025AL  26063.91668981  .00177082  00000+0  26081-2 0  9992,2 45565  53.0525  61.0864 0003723  63.1352  62.4779 15.54314939  5854
STARLINK-1361,45567,53.0502,0.0007375,15.46653136,421.5065480204257,431.543424450123,1 45567U 20025AN  26063.78017742  .00091906  00000+0  17983-2 0  9993,2 45567  53.0502  97.3668 0007375  11.8228 348.2950 15.46653136324793
STARLINK-1363,45568,53.0418,0.0008569,15.75449037,337.5940525930391,349.113343351225,1 45568U 20025AP  26063.91668981  .00188048  00000+0  11905-2 0  9998,2 45568  53.0418  61.5332 0008569  39.8702 179.4256 15.75449037  5800
STARLINK-1366,45569,53.0423,0.000865,15.74745832,339.5387230718934,351.1703634417272,1 45569U 20025AQ  26063.91668981  .00107489  00000+0  71007-3 0  9999,2 45569  53.0423  62.2834 0008650  39.4510 106.3303 15.74745832  5652
STARLINK-1376,45570,53.1602,0.0001353,15.29358196,476.8020985016801,478.65729602995907,1 45570U 20025AR  26063.81796655  .00000919  00000+0  44180-4 0  9993,2 45570  53.1602 100.4039 0001353  88.4794 271.6362 15.29358196324756
STARLINK-1320,45572,53.0506,0.000764,15.67721702,360.2704313603426,370.57459029288475,1 45572U 20025AT  26063.26220336  .00104778  00000+0  93048-3 0  9996,2 45572  53.0506  12.4912 0007640  38.1362 322.0193 15.67721702325955
STARLINK-1321,45573,53.0496,0.0004329,15.47301096,421.6802219742176,427.5700534330417,1 45573U 20025AU  26063.46369593  .00113803  00000+0  21707-2 0  9999,2 45573  53.0496  83.4841 0004329  23.8943 336.2264 15.47301096324650
STARLINK-1331,45578,53.0535,0.0004222,15.47311538,421.7224188830214,427.46664538875757,1 45578U 20025AZ  26063.85848770  .00097398  00000+0  18623-2 0  9999,2 45578  53.0535  88.2673 0004222  63.4956 296.6483 15.47311538324936
STARLINK-1333,45580,53.1585,0.0001299,15.30216767,474.2747627060644,476.0552505673877,1 45580U 20025BB  26063.53349177  .00008382  00000+0  29464-3 0  9995,2 45580  53.1585 101.7588 0001299  99.5967 260.5181 15.30216767324715
STARLINK-1335,45581,53.1477,9.59e-05,15.2776748,481.82983696771953,483.1457047987751,1 45581U 20025BC  26063.91668981  .01762893  00000+0  58599-1 0  9999,2 45581  53.1477  97.1929 0000959  88.8157 186.3323 15.27767480  5849
STARLINK-1337,45582,53.0529,0.0004516,15.57374479,392.2002175691305,398.3179489115146,1 45582U 20025BD  26063.68032036  .00095313  00000+0  12698-2 0  9996,2 45582  53.0529  86.0714 0004516  62.8569 297.2902 15.57374479324932
STARLINK-1347,45586,53.0457,0.0005915,15.53008239,403.9346501931177,411.9625894813862,1 45586U 20025BH  26063.91668981  .00149146  00000+0  23118-2 0  9993,2 45586  53.0457  52.5154 0005915  39.0210 294.4364 15.53008239  5756
STARLINK-1364,45589,53.0516,0.0007401,15.48376143,416.4435801615946,426.50836728529976,1 45589U 20025BL  26063.33276891  .00110438  00000+0  20291-2 0  9998,2 45589  53.0516  88.8685 0007401  33.9976 326.1504 15.48376143324861
STARLINK-1365,45590,53.0525,0.0003015,15.4436435,431.1928123440139,435.3000765610177,1 45590U 20025BM  26063.55784950  .00044875  00000+0  96060-3 0  9993,2 45590  53.0525 117.9717 0003015  13.8782 346.2306 15.44364350324497
STARLINK-1443,45660,53.1354,0.0001905,15.24907074,489.75590394691153,492.3730697133933,1 45660U 20035D   26063.34132268  .00013604  00000+0  55207-3 0  9992,2 45660  53.1354  89.5723 0001905  57.5204 302.5978 15.24907074317943
STARLINK-1446,45663,53.0264,4.23e-05,15.42607945,438.1273930095731,438.70407337080087,1 45663U 20035G   26063.17512599  .00032677  00000+0  74584-3 0  9995,2 45663  53.0264  25.5652 0000423 239.9034 120.1929 15.42607945318829
STARLINK-1448,45665,53.0511,0.0007694,15.5112798,408.2060881810321,418.6569538211497,1 45665U 20035J   26063.82029295  .00111350  00000+0  18563-2 0  9995,2 45665  53.0511  76.1597 0007694  55.3740 304.7993 15.51127980318161
STARLINK-1451,45668,53.0523,0.0001454,15.09731895,536.0131013264663,538.0240285647524,1 45668U 20035M   26063.38531292  .00034301  00000+0  21105-2 0  9990,2 45668  53.0523  90.0043 0001454   7.5706 352.5306 15.09731895317940
STARLINK-1452,45669,53.033,0.0007918,15.43959402,429.043184184693,439.8315769737783,1 45669U 20035N   26063.37435889  .00072872  00000+0  15687-2 0  9998,2 45669  53.0330  47.0443 0007918  32.7072 327.4422 15.43959402318541
STARLINK-1453,45670,53.0479,0.0007656,15.51065519,408.4140851108814,418.81361401173035,1 45670U 20035P   26063.29639673  .00142808  00000+0  23745-2 0  9999,2 45670  53.0479  39.2762 0007656  25.6909 334.4478 15.51065519318537
STARLINK-1454,45671,53.051,0.0008536,15.49622813,412.0275937564902,423.6296662800569,1 45671U 20035Q   26063.33606154  .00126051  00000+0  22107-2 0  9996,2 45671  53.0510  78.5620 0008536  38.4906 321.6709 15.49622813318088
STARLINK-1456,45673,53.0487,0.0001675,15.49665884,416.5644027808821,418.84100908236906,1 45673U 20035S   26063.33073612  .00037765  00000+0  67521-3 0  9998,2 45673  53.0487  72.0351 0001675  96.1380 263.9819 15.49665884318194
STARLINK-1457,45674,53.0474,0.0009746,15.77133391,332.021113934582,345.1133137882407,1 45674U 20035T   26063.91668981  .00193719  00000+0  11372-2 0  9996,2 45674  53.0474  46.3065 0009746  51.4565 306.8954 15.77133391  5962
